start=new Date('2023-05-07T00:00:00.000Z').valueOf();
sats=[{"MEAN_ANOMALY":"252.4907","OBJECT_ID":"2022-029D","SEMIMAJOR_AXIS":"6917.896","LAUNCH_DATE":"2022-03-19","BSTAR":"0.00023199000000","DECAY_DATE":null,"RA_OF_ASC_NODE":"70.8850","RCS_SIZE":"LARGE","APOAPSIS":"540.689","PERIOD":"95.438","SITE":"AFETR","CLASSIFICATION_TYPE":"U","EPHEMERIS_TYPE":"0","OBJECT_TYPE":"PAYLOAD","MEAN_ELEMENT_THEORY":"SGP4","MEAN_MOTION":"15.08834992","OBJECT_NAME":"STARLINK-3713","EPOCH":"2023-05-06T05:49:03.868032","MEAN_MOTION_DOT":"0.00003406","NORAD_CAT_ID":"52091","ECCENTRICITY":"0.00013420","INCLINATION":"53.2175","ELEMENT_SET_NO":"999","GP_ID":"231351605","COUNTRY_CODE":"US","PERIAPSIS":"538.832","ARG_OF_PERICENTER":"107.6232","CENTER_NAME":"EARTH","TLE_LINE2":"2 52091  53.2175  70.8850 0001342 107.6232 252.4907 15.08834992 63884","REF_FRAME":"TEME","REV_AT_EPOCH":"6388","TLE_LINE1":"1 52091U 22029D   23126.24240588  .00003406  00000-0  23199-3 0  9999","TIME_SYSTEM":"UTC","FILE":"3902298","MEAN_MOTION_DDOT":"0.0000000000000"},{"ELEMENT_SET_NO":"999","GP_ID":"231351855","COUNTRY_CODE":"US","MEAN_MOTION_DOT":"0.00001209","INCLINATION":"53.2165","NORAD_CAT_ID":"52092","ECCENTRICITY":"0.00012420","REV_AT_EPOCH":"6388","REF_FRAME":"TEME","TIME_SYSTEM":"UTC","TLE_LINE1":"1 52092U 22029E   23126.23872732  .00001209  00000-0  94034-4 0  9997","FILE":"3902298","MEAN_MOTION_DDOT":"0.0000000000000","ARG_OF_PERICENTER":"92.1249","PERIAPSIS":"538.890","CENTER_NAME":"EARTH","TLE_LINE2":"2 52092  53.2165  70.9062 0001242  92.1249 267.9885 15.08838825 63880","DECAY_DATE":null,"APOAPSIS":"540.608","RCS_SIZE":"LARGE","RA_OF_ASC_NODE":"70.9062","MEAN_ANOMALY":"267.9885","OBJECT_ID":"2022-029E","SEMIMAJOR_AXIS":"6917.884","LAUNCH_DATE":"2022-03-19","BSTAR":"0.00009403400000","CLASSIFICATION_TYPE":"U","OBJECT_TYPE":"PAYLOAD","EPHEMERIS_TYPE":"0","EPOCH":"2023-05-06T05:43:46.040448","OBJECT_NAME":"STARLINK-3716","MEAN_ELEMENT_THEORY":"SGP4","MEAN_MOTION":"15.08838825","PERIOD":"95.438","SITE":"AFETR"},{"ELEMENT_SET_NO":"999","GP_ID":"231352607","COUNTRY_CODE":"US","MEAN_MOTION_DOT":"0.00001256","INCLINATION":"53.2171","NORAD_CAT_ID":"52093","ECCENTRICITY":"0.00015250","REV_AT_EPOCH":"6388","REF_FRAME":"TEME","TIME_SYSTEM":"UTC","TLE_LINE1":"1 52093U 22029F   23126.22864380  .00001256  00000-0  96981-4 0  9992","FILE":"3902298","MEAN_MOTION_DDOT":"0.0000000000000","PERIAPSIS":"538.684","ARG_OF_PERICENTER":"106.8568","CENTER_NAME":"EARTH","TLE_LINE2":"2 52093  53.2171  70.9596 0001525 106.8568 253.2591 15.08842190 63883","DECAY_DATE":null,"APOAPSIS":"540.794","RA_OF_ASC_NODE":"70.9596","RCS_SIZE":"LARGE","MEAN_ANOMALY":"253.2591","OBJECT_ID":"2022-029F","LAUNCH_DATE":"2022-03-19","SEMIMAJOR_AXIS":"6917.874","BSTAR":"0.00009698100000","CLASSIFICATION_TYPE":"U","OBJECT_TYPE":"PAYLOAD","EPHEMERIS_TYPE":"0","EPOCH":"2023-05-06T05:29:14.824320","OBJECT_NAME":"STARLINK-3673","MEAN_ELEMENT_THEORY":"SGP4","MEAN_MOTION":"15.08842190","PERIOD":"95.437","SITE":"AFETR"},{"GP_ID":"231352849","COUNTRY_CODE":"US","ELEMENT_SET_NO":"999","MEAN_MOTION_DOT":"0.00010359","ECCENTRICITY":"0.00012510","NORAD_CAT_ID":"52094","INCLINATION":"53.2165","FILE":"3902298","MEAN_MOTION_DDOT":"0.0000000000000","REF_FRAME":"TEME","REV_AT_EPOCH":"6388","TLE_LINE1":"1 52094U 22029G   23126.23136014  .00010359  00000-0  66774-3 0  9990","TIME_SYSTEM":"UTC","TLE_LINE2":"2 52094  53.2165  70.9378 0001251  88.8189 271.2946 15.08854009 63885","CENTER_NAME":"EARTH","PERIAPSIS":"538.837","ARG_OF_PERICENTER":"88.8189","DECAY_DATE":null,"RA_OF_ASC_NODE":"70.9378","RCS_SIZE":"LARGE","APOAPSIS":"540.568","LAUNCH_DATE":"2022-03-19","SEMIMAJOR_AXIS":"6917.838","BSTAR":"0.00066774000000","MEAN_ANOMALY":"271.2946","OBJECT_ID":"2022-029G","MEAN_ELEMENT_THEORY":"SGP4","MEAN_MOTION":"15.08854009","OBJECT_NAME":"STARLINK-3714","EPOCH":"2023-05-06T05:33:09.516096","CLASSIFICATION_TYPE":"U","EPHEMERIS_TYPE":"0","OBJECT_TYPE":"PAYLOAD","PERIOD":"95.437","SITE":"AFETR"},{"EPOCH":"2023-05-06T05:17:16.232064","MEAN_ELEMENT_THEORY":"SGP4","MEAN_MOTION":"15.08835532","OBJECT_NAME":"STARLINK-3701","OBJECT_TYPE":"PAYLOAD","EPHEMERIS_TYPE":"0","CLASSIFICATION_TYPE":"U","SITE":"AFETR","PERIOD":"95.438","APOAPSIS":"540.591","RCS_SIZE":"LARGE","RA_OF_ASC_NODE":"70.9887","DECAY_DATE":null,"BSTAR":"0.00004481600000","LAUNCH_DATE":"2022-03-19","SEMIMAJOR_AXIS":"6917.894","OBJECT_ID":"2022-029H","MEAN_ANOMALY":"271.1012","MEAN_MOTION_DDOT":"0.0000000000000","FILE":"3902298","TIME_SYSTEM":"UTC","TLE_LINE1":"1 52095U 22029H   23126.22032676  .00000425  00000-0  44816-4 0  9996","REV_AT_EPOCH":"6388","REF_FRAME":"TEME","CENTER_NAME":"EARTH","TLE_LINE2":"2 52095  53.2171  70.9887 0001202  89.0118 271.1012 15.08835532 63882","PERIAPSIS":"538.928","ARG_OF_PERICENTER":"89.0118","COUNTRY_CODE":"US","GP_ID":"231352106","ELEMENT_SET_NO":"999","INCLINATION":"53.2171","NORAD_CAT_ID":"52095","ECCENTRICITY":"0.00012020","MEAN_MOTION_DOT":"0.00000425"},{"TLE_LINE2":"2 52096  53.2177  61.0826 0001067  89.3231 270.7883 15.08842824 64009","CENTER_NAME":"EARTH","PERIAPSIS":"538.999","ARG_OF_PERICENTER":"89.3231","MEAN_MOTION_DDOT":"0.0000000000000","FILE":"3902298","TLE_LINE1":"1 52096U 22029J   23126.19916423 -.00000276  00000-0  73114-6 0  9994","TIME_SYSTEM":"UTC","REF_FRAME":"TEME","REV_AT_EPOCH":"6400","ECCENTRICITY":"0.00010670","NORAD_CAT_ID":"52096","INCLINATION":"53.2177","MEAN_MOTION_DOT":"-0.00000276","COUNTRY_CODE":"US","GP_ID":"231352356","ELEMENT_SET_NO":"999","SITE":"AFETR","PERIOD":"95.437","OBJECT_NAME":"STARLINK-3717","MEAN_ELEMENT_THEORY":"SGP4","MEAN_MOTION":"15.08842824","EPOCH":"2023-05-06T04:46:47.789472","EPHEMERIS_TYPE":"0","OBJECT_TYPE":"PAYLOAD","CLASSIFICATION_TYPE":"U","BSTAR":"0.00000073114000","LAUNCH_DATE":"2022-03-19","SEMIMAJOR_AXIS":"6917.872","OBJECT_ID":"2022-029J","MEAN_ANOMALY":"270.7883","RA_OF_ASC_NODE":"61.0826","RCS_SIZE":"LARGE","APOAPSIS":"540.475","DECAY_DATE":null},{"COUNTRY_CODE":"US","GP_ID":"231353107","ELEMENT_SET_NO":"999","NORAD_CAT_ID":"52098","ECCENTRICITY":"0.00011200","INCLINATION":"53.2175","MEAN_MOTION_DOT":"0.00002848","MEAN_MOTION_DDOT":"0.0000000000000","FILE":"3902298","TLE_LINE1":"1 52098U 22029L   23126.22398838  .00002848  00000-0  19689-3 0  9994","TIME_SYSTEM":"UTC","REF_FRAME":"TEME","REV_AT_EPOCH":"6388","CENTER_NAME":"EARTH","TLE_LINE2":"2 52098  53.2175  70.9709 0001120  91.5509 268.5612 15.08855094 63884","PERIAPSIS":"538.924","ARG_OF_PERICENTER":"91.5509","RCS_SIZE":"LARGE","RA_OF_ASC_NODE":"70.9709","APOAPSIS":"540.474","DECAY_DATE":null,"BSTAR":"0.00019689000000","SEMIMAJOR_AXIS":"6917.834","LAUNCH_DATE":"2022-03-19","OBJECT_ID":"2022-029L","MEAN_ANOMALY":"268.5612","OBJECT_NAME":"STARLINK-3665","MEAN_MOTION":"15.08855094","MEAN_ELEMENT_THEORY":"SGP4","EPOCH":"2023-05-06T05:22:32.596032","EPHEMERIS_TYPE":"0","OBJECT_TYPE":"PAYLOAD","CLASSIFICATION_TYPE":"U","SITE":"AFETR","PERIOD":"95.437"},{"FILE":"3902298","MEAN_MOTION_DDOT":"0.0000000000000","REF_FRAME":"TEME","REV_AT_EPOCH":"6387","TLE_LINE1":"1 52100U 22029N   23126.15040310  .00001289  00000-0  99054-4 0  9992","TIME_SYSTEM":"UTC","CENTER_NAME":"EARTH","TLE_LINE2":"2 52100  53.2170  71.3029 0001223 101.6432 258.4697 15.08841960 63872","ARG_OF_PERICENTER":"101.6432","PERIAPSIS":"538.893","GP_ID":"231353350","COUNTRY_CODE":"US","ELEMENT_SET_NO":"999","MEAN_MOTION_DOT":"0.00001289","ECCENTRICITY":"0.00012230","NORAD_CAT_ID":"52100","INCLINATION":"53.2170","MEAN_ELEMENT_THEORY":"SGP4","OBJECT_NAME":"STARLINK-3702","MEAN_MOTION":"15.08841960","EPOCH":"2023-05-06T03:36:34.827840","CLASSIFICATION_TYPE":"U","EPHEMERIS_TYPE":"0","OBJECT_TYPE":"PAYLOAD","PERIOD":"95.437","SITE":"AFETR","DECAY_DATE":null,"RA_OF_ASC_NODE":"71.3029","RCS_SIZE":"LARGE","APOAPSIS":"540.585","LAUNCH_DATE":"2022-03-19","SEMIMAJOR_AXIS":"6917.874","BSTAR":"0.00009905400000","MEAN_ANOMALY":"258.4697","OBJECT_ID":"2022-029N"},{"EPOCH":"2023-05-06T06:38:07.654272","MEAN_MOTION":"15.08843785","OBJECT_NAME":"STARLINK-3703","MEAN_ELEMENT_THEORY":"SGP4","OBJECT_TYPE":"PAYLOAD","EPHEMERIS_TYPE":"0","CLASSIFICATION_TYPE":"U","PERIOD":"95.437","SITE":"AFETR","APOAPSIS":"540.489","RCS_SIZE":"LARGE","RA_OF_ASC_NODE":"70.7429","DECAY_DATE":null,"BSTAR":"0.00006513200000","LAUNCH_DATE":"2022-03-19","SEMIMAJOR_AXIS":"6917.869","OBJECT_ID":"2022-029P","MEAN_ANOMALY":"263.3066","MEAN_MOTION_DDOT":"0.0000000000000","FILE":"3902298","TIME_SYSTEM":"UTC","TLE_LINE1":"1 52101U 22029P   23126.27647748  .00000749  00000-0  65132-4 0  9994","REV_AT_EPOCH":"6388","REF_FRAME":"TEME","CENTER_NAME":"EARTH","TLE_LINE2":"2 52101  53.2167  70.7429 0001091  96.8051 263.3066 15.08843785 63884","ARG_OF_PERICENTER":"96.8051","PERIAPSIS":"538.979","COUNTRY_CODE":"US","GP_ID":"231351606","ELEMENT_SET_NO":"999","INCLINATION":"53.2167","NORAD_CAT_ID":"52101","ECCENTRICITY":"0.00010910","MEAN_MOTION_DOT":"0.00000749"},{"OBJECT_TYPE":"PAYLOAD","EPHEMERIS_TYPE":"0","CLASSIFICATION_TYPE":"U","EPOCH":"2023-05-06T02:03:54.265536","MEAN_MOTION":"15.08837317","OBJECT_NAME":"STARLINK-3709","MEAN_ELEMENT_THEORY":"SGP4","PERIOD":"95.438","SITE":"AFETR","APOAPSIS":"540.607","RCS_SIZE":"LARGE","RA_OF_ASC_NODE":"61.5887","DECAY_DATE":null,"OBJECT_ID":"2022-029Q","MEAN_ANOMALY":"260.6676","BSTAR":"-0.00012718000000","SEMIMAJOR_AXIS":"6917.889","LAUNCH_DATE":"2022-03-19","TIME_SYSTEM":"UTC","TLE_LINE1":"1 52102U 22029Q   23126.08604474 -.00002311  00000-0 -12718-3 0  9993","REV_AT_EPOCH":"6399","REF_FRAME":"TEME","MEAN_MOTION_DDOT":"0.0000000000000","FILE":"3902298","PERIAPSIS":"538.901","ARG_OF_PERICENTER":"99.4455","CENTER_NAME":"EARTH","TLE_LINE2":"2 52102  53.2173  61.5887 0001233  99.4455 260.6676 15.08837317 63996","ELEMENT_SET_NO":"999","COUNTRY_CODE":"US","GP_ID":"231351856","INCLINATION":"53.2173","ECCENTRICITY":"0.00012330","NORAD_CAT_ID":"52102","MEAN_MOTION_DOT":"-0.00002311"}];
